{"type": "FeatureCollection", "features": [{"type": "Feature", "properties": {"osm_id": 3479876, "name_ru": "район Есиль", "name_kk": "Есіл ауданы", "name_en": "Esil district"}, "geometry": {"type": "MultiPolygon", "coordinates": [[[[71.4014, 51.0098], [71.3811, 51.0132], [71.3805, 51.0211], [71.3817, 51.0305], [71.4104, 51.1112], [71.4146, 51.134], [71.4231, 51.1481], [71.4282, 51.1519], [71.4311, 51.1503], [71.4359, 51.1496], [71.441, 51.1458], [71.4418, 51.1405], [71.4472, 51.1323], [71.4475, 51.1306], [71.4526, 51.1262], [71.4516, 51.1239], [71.4466, 51.1218], [71.4458, 51.12], [71.4501, 51.1152], [71.4511, 51.1089], [71.4569, 51.1061], [71.4717, 51.1054], [71.474, 51.1047], [71.4763, 51.1025], [71.4802, 51.101], [71.4897, 51.0996], [71.5001, 51.1035], [71.5143, 51.1008], [71.5237, 51.1033], [71.5276, 51.1034], [71.5878, 51.0972], [71.6083, 51.0914], [71.6035, 51.0859], [71.588, 51.0747], [71.5795, 51.0704], [71.5643, 51.0575], [71.5559, 51.0489], [71.5474, 51.0511], [71.5455, 51.0489], [71.5397, 51.0482], [71.5502, 51.0296], [71.5559, 51.0154], [71.5441, 51.0118], [71.5385, 51.0088], [71.537, 51.0069], [71.5372, 50.9885], [71.5381, 50.9872], [71.5526, 50.9756], [71.5543, 50.9683], [71.5487, 50.9465], [71.5469, 50.9309], [71.4866, 50.9308], [71.4827, 50.9396], [71.4716, 50.9376], [71.4692, 50.9458], [71.4667, 50.9477], [71.4606, 50.9472], [71.4632, 50.9585], [71.4509, 50.9604], [71.4515, 50.9649], [71.4563, 50.9826], [71.4516, 50.9833], [71.4542, 51.0009], [71.438, 51.0037], [71.4368, 51.0031], [71.4353, 51.0042], [71.4014, 51.0098]]]]}}, {"type": "Feature", "properties": {"osm_id": 3482819, "name_ru": "район Алматы", "name_kk": "Алматы ауданы", "name_en": "Almaty District"}, "geometry": {"type": "MultiPolygon", "coordinates": [[[[71.4474, 51.1312], [71.4418, 51.1405], [71.441, 51.1458], [71.4385, 51.1475], [71.4476, 51.1519], [71.4531, 51.1533], [71.455, 51.1546], [71.4596, 51.1555], [71.4719, 51.1616], [71.474, 51.1637], [71.4776, 51.1641], [71.4809, 51.1678], [71.4853, 51.1689], [71.4879, 51.1711], [71.4916, 51.1727], [71.4921, 51.1739], [71.4946, 51.1756], [71.4978, 51.1758], [71.5049, 51.1835], [71.5149, 51.1821], [71.5238, 51.1782], [71.5253, 51.179], [71.5284, 51.1791], [71.5334, 51.1807], [71.5334, 51.1829], [71.5339, 51.1835], [71.5367, 51.1845], [71.541, 51.1886], [71.5478, 51.19], [71.5522, 51.1898], [71.557, 51.1908], [71.563, 51.1953], [71.5686, 51.1967], [71.58, 51.2028], [71.5829, 51.2033], [71.5878, 51.1985], [71.6214, 51.1882], [71.6351, 51.1595], [71.6452, 51.1399], [71.673, 51.141], [71.673, 51.1401], [71.6887, 51.1404], [71.7109, 51.132], [71.7147, 51.1313], [71.7021, 51.1077], [71.6659, 51.1164], [71.6459, 51.1219], [71.6336, 51.1243], [71.5665, 51.1358], [71.5589, 51.1363], [71.5389, 51.1359], [71.5324, 51.137], [71.5245, 51.1398], [71.519, 51.1353], [71.4845, 51.1255], [71.4474, 51.1312]]], [[[71.7824, 51.1505], [71.7661, 51.1447], [71.7609, 51.1457], [71.7469, 51.1621], [71.7404, 51.1661], [71.7851, 51.1656], [71.7852, 51.1573], [71.7824, 51.1505]]]]}}, {"type": "Feature", "properties": {"osm_id": 3486954, "name_ru": "район Сарыарка", "name_kk": "Сарыарқа ауданы", "name_en": "Sarıarqa district"}, "geometry": {"type": "MultiPolygon", "coordinates": [[[[71.3602, 51.1648], [71.3563, 51.1645], [71.3547, 51.1659], [71.3499, 51.1677], [71.3476, 51.1711], [71.3411, 51.174], [71.3342, 51.1742], [71.3311, 51.1727], [71.3305, 51.1739], [71.3282, 51.1743], [71.327, 51.1754], [71.3276, 51.1767], [71.3266, 51.1778], [71.3239, 51.1776], [71.3231, 51.1767], [71.3212, 51.1778], [71.3198, 51.1773], [71.3182, 51.1783], [71.3174, 51.1779], [71.3147, 51.1799], [71.3116, 51.1794], [71.3117, 51.18], [71.31, 51.1799], [71.3094, 51.1803], [71.3094, 51.1815], [71.3076, 51.1823], [71.3052, 51.182], [71.2987, 51.1835], [71.2995, 51.1842], [71.2981, 51.1844], [71.2964, 51.1862], [71.2976, 51.1867], [71.2921, 51.1893], [71.2862, 51.1891], [71.2769, 51.1876], [71.2732, 51.1882], [71.2716, 51.1893], [71.2695, 51.189], [71.2691, 51.1897], [71.2672, 51.1887], [71.2667, 51.1897], [71.2648, 51.1889], [71.2645, 51.19], [71.2625, 51.1896], [71.2615, 51.1903], [71.2612, 51.1912], [71.2619, 51.1915], [71.2609, 51.1922], [71.2601, 51.1916], [71.2602, 51.1902], [71.2593, 51.19], [71.2575, 51.1903], [71.257, 51.1895], [71.2557, 51.1894], [71.2541, 51.1913], [71.253, 51.1903], [71.2521, 51.1902], [71.2514, 51.1908], [71.2527, 51.1926], [71.2519, 51.1926], [71.2514, 51.1934], [71.25, 51.1932], [71.2492, 51.1936], [71.2488, 51.195], [71.2423, 51.1978], [71.245, 51.1986], [71.24, 51.202], [71.2402, 51.2033], [71.2427, 51.2028], [71.2428, 51.2068], [71.2374, 51.2085], [71.2378, 51.2092], [71.2374, 51.2096], [71.2392, 51.2099], [71.2401, 51.2105], [71.2397, 51.2109], [71.2411, 51.2111], [71.2407, 51.2115], [71.2412, 51.2119], [71.24, 51.2123], [71.2408, 51.2127], [71.2405, 51.2138], [71.2415, 51.2142], [71.2411, 51.2154], [71.2462, 51.2211], [71.2477, 51.2244], [71.2447, 51.2251], [71.2557, 51.2388], [71.2603, 51.2463], [71.3016, 51.2332], [71.3033, 51.2359], [71.3534, 51.2199], [71.3561, 51.2187], [71.3633, 51.2117], [71.3672, 51.2095], [71.4464, 51.1844], [71.4436, 51.1812], [71.4398, 51.1792], [71.4241, 51.1772], [71.4302, 51.1553], [71.4315, 51.1542], [71.4282, 51.1519], [71.4247, 51.1585], [71.4218, 51.1602], [71.4193, 51.1604], [71.4094, 51.1572], [71.4067, 51.1574], [71.399, 51.1597], [71.3953, 51.1628], [71.3738, 51.1646], [71.3602, 51.1648]]]]}}, {"type": "Feature", "properties": {"osm_id": 8593081, "name_ru": "район Байконур", "name_kk": "Байқоңыр ауданы", "name_en": "Bayqoñır district"}, "geometry": {"type": "MultiPolygon", "coordinates": [[[[71.3384, 51.2679], [71.3349, 51.2667], [71.3199, 51.2535], [71.3033, 51.2359], [71.3544, 51.2195], [71.3583, 51.217], [71.3633, 51.2117], [71.3672, 51.2095], [71.4464, 51.1844], [71.4436, 51.1812], [71.4398, 51.1792], [71.4241, 51.1772], [71.4302, 51.1553], [71.4315, 51.1542], [71.4282, 51.1519], [71.4311, 51.1503], [71.4359, 51.1496], [71.4385, 51.1475], [71.4476, 51.1519], [71.4531, 51.1533], [71.455, 51.1546], [71.4596, 51.1555], [71.4719, 51.1616], [71.474, 51.1637], [71.4776, 51.1641], [71.4809, 51.1678], [71.4853, 51.1689], [71.4879, 51.1711], [71.4916, 51.1727], [71.4921, 51.1739], [71.4946, 51.1756], [71.4978, 51.1758], [71.5049, 51.1835], [71.5149, 51.1821], [71.5238, 51.1782], [71.5253, 51.179], [71.5284, 51.1791], [71.5334, 51.1807], [71.5334, 51.1829], [71.5339, 51.1835], [71.5367, 51.1845], [71.541, 51.1886], [71.5478, 51.19], [71.5522, 51.1898], [71.557, 51.1908], [71.563, 51.1953], [71.5686, 51.1967], [71.58, 51.2028], [71.5829, 51.2033], [71.574, 51.2204], [71.6186, 51.2485], [71.594, 51.2775], [71.5765, 51.2631], [71.567, 51.2575], [71.5662, 51.2528], [71.5626, 51.2488], [71.5583, 51.2485], [71.5511, 51.2431], [71.4717, 51.2633], [71.4982, 51.2837], [71.4984, 51.2901], [71.4759, 51.2864], [71.4685, 51.2785], [71.4504, 51.2716], [71.4281, 51.2747], [71.4, 51.2674], [71.3851, 51.3023], [71.3556, 51.2977], [71.3664, 51.2712], [71.3467, 51.2673], [71.3459, 51.2685], [71.3421, 51.2671], [71.3408, 51.2687], [71.3384, 51.2679]]], [[[71.3362, 51.2717], [71.3093, 51.2638], [71.2981, 51.2728], [71.3079, 51.2777], [71.3061, 51.291], [71.3202, 51.2954], [71.3362, 51.2717]]], [[[71.658, 51.3172], [71.6513, 51.3215], [71.6415, 51.3317], [71.6678, 51.3399], [71.6839, 51.3509], [71.6951, 51.3511], [71.6927, 51.3489], [71.6977, 51.3466], [71.7011, 51.3498], [71.7063, 51.3476], [71.7039, 51.3428], [71.6999, 51.3389], [71.6974, 51.3353], [71.6938, 51.3337], [71.6866, 51.3289], [71.6842, 51.3257], [71.6716, 51.3166], [71.6733, 51.3157], [71.6704, 51.3138], [71.6742, 51.3111], [71.6719, 51.3094], [71.6666, 51.313], [71.658, 51.3172]]]]}}, {"type": "Feature", "properties": {"osm_id": 20593940, "name_ru": "район Нура", "name_kk": "Нұра ауданы", "name_en": "Nura district"}, "geometry": {"type": "MultiPolygon", "coordinates": [[[[71.4282, 51.1519], [71.4231, 51.1481], [71.4146, 51.134], [71.4104, 51.1112], [71.382, 51.0321], [71.3805, 51.0211], [71.3811, 51.0132], [71.3355, 51.0193], [71.3317, 51.0216], [71.3184, 51.0239], [71.3123, 51.0235], [71.3077, 51.0224], [71.3029, 51.0229], [71.289, 51.0217], [71.286, 51.0223], [71.2841, 51.0239], [71.2807, 51.0252], [71.2756, 51.0303], [71.2693, 51.0343], [71.2679, 51.0388], [71.266, 51.0406], [71.2633, 51.0417], [71.2602, 51.0456], [71.255, 51.0489], [71.2549, 51.0539], [71.254, 51.056], [71.2558, 51.0618], [71.2555, 51.0637], [71.254, 51.0656], [71.2502, 51.0682], [71.2455, 51.0683], [71.2259, 51.1002], [71.218, 51.1108], [71.2289, 51.1151], [71.2284, 51.1192], [71.2297, 51.1229], [71.2375, 51.1325], [71.2367, 51.1329], [71.237, 51.1384], [71.2362, 51.1497], [71.2385, 51.1497], [71.2386, 51.1523], [71.2426, 51.1524], [71.2428, 51.1576], [71.2544, 51.1582], [71.253, 51.176], [71.2654, 51.1743], [71.2819, 51.1794], [71.2798, 51.1811], [71.2788, 51.1804], [71.2776, 51.1808], [71.2763, 51.1801], [71.2757, 51.1821], [71.2733, 51.1814], [71.2718, 51.1828], [71.2727, 51.1837], [71.2709, 51.1834], [71.2712, 51.1842], [71.2699, 51.1861], [71.272, 51.1871], [71.2721, 51.188], [71.2769, 51.1876], [71.2862, 51.1891], [71.2921, 51.1893], [71.2976, 51.1867], [71.2964, 51.1862], [71.2981, 51.1844], [71.2995, 51.1842], [71.2987, 51.1835], [71.3052, 51.182], [71.3076, 51.1823], [71.3094, 51.1815], [71.3094, 51.1803], [71.31, 51.1799], [71.3117, 51.18], [71.3116, 51.1794], [71.3147, 51.1799], [71.3174, 51.1779], [71.3182, 51.1783], [71.3198, 51.1773], [71.3212, 51.1778], [71.3231, 51.1767], [71.3239, 51.1776], [71.3266, 51.1778], [71.3276, 51.1767], [71.327, 51.1754], [71.3282, 51.1743], [71.3305, 51.1739], [71.3311, 51.1727], [71.3342, 51.1742], [71.3375, 51.1744], [71.3403, 51.1742], [71.3444, 51.1728], [71.3479, 51.1708], [71.3499, 51.1677], [71.3547, 51.1659], [71.3563, 51.1645], [71.3738, 51.1646], [71.3953, 51.1628], [71.399, 51.1597], [71.4067, 51.1574], [71.4094, 51.1572], [71.4193, 51.1604], [71.4218, 51.1602], [71.4247, 51.1585], [71.4282, 51.1519]]]]}}]}